ORBCOMM FM105           
1 41181U 15081C   26062.24435444  .00000339  00000+0  13974-3 0  9997
2 41181  47.0008  82.5406 0001305   7.6324 352.4576 14.45487326538228
ORBCOMM FM110           
1 41182U 15081D   26062.56178373  .00001282  00000+0  30825-3 0  9990
2 41182  47.0014 140.8129 0003548 295.0481  65.0036 14.58720495542206
ORBCOMM FM118           
1 41183U 15081E   26062.59636074  .00001228  00000+0  29689-3 0  9997
2 41183  47.0033 140.9629 0003884 264.1090  95.9353 14.58716363542315
ORBCOMM FM112           
1 41184U 15081F   26062.32535052  .00000953  00000+0  23851-3 0  9992
2 41184  46.9996  50.7461 0001017  48.6959 311.4014 14.58716570543499
ORBCOMM FM113           
1 41185U 15081G   26062.37105889  .00000913  00000+0  22989-3 0  9996
2 41185  47.0012  50.8971 0000592  57.1173 302.9770 14.58717779543483
ORBCOMM FM115           
1 41186U 15081H   26062.66987875  .00001069  00000+0  24000-3 0  9991
2 41186  46.9973 244.9013 0001160 205.8214 154.2615 14.63105979545769
ORBCOMM FM108           
1 41187U 15081J   26062.67618106  .00001299  00000+0  31190-3 0  9994
2 41187  47.0059 320.9947 0002201  59.3085 300.8017 14.58730739544679
ORBCOMM FM117           
1 41188U 15081K   26062.09375520  .00001107  00000+0  27116-3 0  9992
2 41188  47.0023 322.4166 0002542  66.8447 293.2706 14.58720328544633
ORBCOMM FM116           
1 41189U 15081L   26062.14302163  .00000958  00000+0  23956-3 0  9993
2 41189  47.0028  51.9647 0002691 289.7792  70.2803 14.58710608543451
